ONEWEB-0342             
1 49208U 21083Y   26064.10951190  .00000082  00000+0  16890-3 0  9997
2 49208  87.9185 295.2164 0001677  88.1005 272.0320 13.20772895223046
ONEWEB-0343             
1 49209U 21083Z   26063.36354013  .00000070  00000+0  14486-3 0  9992
2 49209  87.9251 356.2723 0002324  84.1312 276.0085 13.18686486216228
ONEWEB-0344             
1 49210U 21083AA  26064.13743857  .00000385  00000+0  10184-2 0  9997
2 49210  87.9028 340.9486 0002086  76.5344 283.6017 13.13470015217238
ONEWEB-0345             
1 49211U 21083AB  26064.12896279  .00000486  00000+0  12957-2 0  9996
2 49211  87.9044 340.9164 0002043  77.6134 282.5224 13.13470045217244
ONEWEB-0346             
1 49212U 21083AC  26063.36021981  .00000045  00000+0  81174-4 0  9992
2 49212  87.9241 356.2818 0001679  56.4760 303.6533 13.18688208216169
ONEWEB-0348             
1 49213U 21083AD  26064.10004965  .00000089  00000+0  18593-3 0  9991
2 49213  87.9179 295.2217 0001769  69.3398 290.7925 13.20772252223070
ONEWEB-0350             
1 49214U 21083AE  26064.13828570  .00000235  00000+0  60992-3 0  9994
2 49214  87.9038 340.9145 0002005  73.3901 286.7448 13.13468927217275
ONEWEB-0351             
1 49215U 21083AF  26064.09360507  .00000000  00000+0 -32659-4 0  9992
2 49215  87.9182 295.2211 0002314 104.8087 255.3303 13.20772970223037
ONEWEB-0352             
1 49216U 21083AG  26064.04264071  .00000080  00000+0  18371-3 0  9998
2 49216  87.9033 340.9498 0001972  88.2314 271.9041 13.13471086217352
ONEWEB-0354             
1 49217U 21083AH  26064.11898086  .00000186  00000+0  42436-3 0  9992
2 49217  87.9179 295.2160 0001797  75.9213 284.2120 13.20772991223076
ONEWEB-0355             
1 49218U 21083AJ  26064.14772383  .00000283  00000+0  73949-3 0  9998
2 49218  87.9029 340.9393 0001933  82.4826 277.6522 13.13468193217244
ONEWEB-0357             
1 49219U 21083AK  26064.11582640  .00000090  00000+0  18979-3 0  9999
2 49219  87.9177 295.2112 0001719  88.7091 271.4240 13.20772878223078
ONEWEB-0332             
1 49279U 21090A   26064.08949868 -.00000050  00000+0 -16846-3 0  9997
2 49279  87.8996 310.4784 0001604  89.2977 270.8337 13.14502928213900
ONEWEB-0347             
1 49280U 21090B   26064.10635360  .00000081  00000+0  16837-3 0  9993
2 49280  87.9182 295.2216 0001413  93.3200 266.8095 13.20769484217306
ONEWEB-0349             
1 49281U 21090C   26064.13792903  .00000160  00000+0  36189-3 0  9994
2 49281  87.9182 295.2151 0001631  83.3605 276.7714 13.20773177216092
ONEWEB-0353             
1 49282U 21090D   26064.15768846 -.00000013  00000+0 -68993-4 0  9994
2 49282  87.9000 310.4588 0001493  89.3764 270.7537 13.14502647213914
ONEWEB-0356             
1 49283U 21090E   26064.13633587  .00000107  00000+0  23104-3 0  9992
2 49283  87.9179 295.2087 0000841  61.0551 299.0666 13.20773191216093
