[{"OBJECT_NAME":"ONEWEB-0342","OBJECT_ID":"2021-083Y","EPOCH":"2026-03-05T02:37:41.828160","MEAN_MOTION":13.20772895,"ECCENTRICITY":0.0001677,"INCLINATION":87.9185,"RA_OF_ASC_NODE":295.2164,"ARG_OF_PERICENTER":88.1005,"MEAN_ANOMALY":272.032,"EPHEMERIS_TYPE":0,"CLASSIFICATION_TYPE":"U","NORAD_CAT_ID":49208,"ELEMENT_SET_NO":999,"REV_AT_EPOCH":22304,"BSTAR":0.0001689,"MEAN_MOTION_DOT":8.2e-7,"MEAN_MOTION_DDOT":0},{"OBJECT_NAME":"ONEWEB-0343","OBJECT_ID":"2021-083Z","EPOCH":"2026-03-04T08:43:29.867232","MEAN_MOTION":13.18686486,"ECCENTRICITY":0.00023246,"INCLINATION":87.9251,"RA_OF_ASC_NODE":356.2723,"ARG_OF_PERICENTER":84.1312,"MEAN_ANOMALY":276.0085,"EPHEMERIS_TYPE":0,"CLASSIFICATION_TYPE":"U","NORAD_CAT_ID":49209,"ELEMENT_SET_NO":999,"REV_AT_EPOCH":21622,"BSTAR":0.00014486076,"MEAN_MOTION_DOT":7.0e-7,"MEAN_MOTION_DDOT":0},{"OBJECT_NAME":"ONEWEB-0344","OBJECT_ID":"2021-083AA","EPOCH":"2026-03-05T03:17:54.692448","MEAN_MOTION":13.13470015,"ECCENTRICITY":0.0002086,"INCLINATION":87.9028,"RA_OF_ASC_NODE":340.9486,"ARG_OF_PERICENTER":76.5344,"MEAN_ANOMALY":283.6017,"EPHEMERIS_TYPE":0,"CLASSIFICATION_TYPE":"U","NORAD_CAT_ID":49210,"ELEMENT_SET_NO":999,"REV_AT_EPOCH":21723,"BSTAR":0.0010184,"MEAN_MOTION_DOT":3.85e-6,"MEAN_MOTION_DDOT":0},{"OBJECT_NAME":"ONEWEB-0345","OBJECT_ID":"2021-083AB","EPOCH":"2026-03-05T03:05:42.385056","MEAN_MOTION":13.13470045,"ECCENTRICITY":0.0002043,"INCLINATION":87.9044,"RA_OF_ASC_NODE":340.9164,"ARG_OF_PERICENTER":77.6134,"MEAN_ANOMALY":282.5224,"EPHEMERIS_TYPE":0,"CLASSIFICATION_TYPE":"U","NORAD_CAT_ID":49211,"ELEMENT_SET_NO":999,"REV_AT_EPOCH":21724,"BSTAR":0.0012957,"MEAN_MOTION_DOT":4.86e-6,"MEAN_MOTION_DDOT":0},{"OBJECT_NAME":"ONEWEB-0346","OBJECT_ID":"2021-083AC","EPOCH":"2026-03-04T08:38:42.991584","MEAN_MOTION":13.18688208,"ECCENTRICITY":0.00016799,"INCLINATION":87.9241,"RA_OF_ASC_NODE":356.2818,"ARG_OF_PERICENTER":56.476,"MEAN_ANOMALY":303.6533,"EPHEMERIS_TYPE":0,"CLASSIFICATION_TYPE":"U","NORAD_CAT_ID":49212,"ELEMENT_SET_NO":999,"REV_AT_EPOCH":21616,"BSTAR":8.1174312e-5,"MEAN_MOTION_DOT":4.5e-7,"MEAN_MOTION_DDOT":0},{"OBJECT_NAME":"ONEWEB-0348","OBJECT_ID":"2021-083AD","EPOCH":"2026-03-05T02:24:04.289760","MEAN_MOTION":13.20772252,"ECCENTRICITY":0.0001769,"INCLINATION":87.9179,"RA_OF_ASC_NODE":295.2217,"ARG_OF_PERICENTER":69.3398,"MEAN_ANOMALY":290.7925,"EPHEMERIS_TYPE":0,"CLASSIFICATION_TYPE":"U","NORAD_CAT_ID":49213,"ELEMENT_SET_NO":999,"REV_AT_EPOCH":22307,"BSTAR":0.00018593,"MEAN_MOTION_DOT":8.9e-7,"MEAN_MOTION_DDOT":0},{"OBJECT_NAME":"ONEWEB-0350","OBJECT_ID":"2021-083AE","EPOCH":"2026-03-05T03:19:07.884480","MEAN_MOTION":13.13468927,"ECCENTRICITY":0.0002005,"INCLINATION":87.9038,"RA_OF_ASC_NODE":340.9145,"ARG_OF_PERICENTER":73.3901,"MEAN_ANOMALY":286.7448,"EPHEMERIS_TYPE":0,"CLASSIFICATION_TYPE":"U","NORAD_CAT_ID":49214,"ELEMENT_SET_NO":999,"REV_AT_EPOCH":21727,"BSTAR":0.00060992,"MEAN_MOTION_DOT":2.35e-6,"MEAN_MOTION_DDOT":0},{"OBJECT_NAME":"ONEWEB-0351","OBJECT_ID":"2021-083AF","EPOCH":"2026-03-05T02:14:47.478048","MEAN_MOTION":13.2077297,"ECCENTRICITY":0.0002314,"INCLINATION":87.9182,"RA_OF_ASC_NODE":295.2211,"ARG_OF_PERICENTER":104.8087,"MEAN_ANOMALY":255.3303,"EPHEMERIS_TYPE":0,"CLASSIFICATION_TYPE":"U","NORAD_CAT_ID":49215,"ELEMENT_SET_NO":999,"REV_AT_EPOCH":22303,"BSTAR":-3.2659e-5,"MEAN_MOTION_DOT":0,"MEAN_MOTION_DDOT":0},{"OBJECT_NAME":"ONEWEB-0352","OBJECT_ID":"2021-083AG","EPOCH":"2026-03-05T01:01:24.157344","MEAN_MOTION":13.13471086,"ECCENTRICITY":0.0001972,"INCLINATION":87.9033,"RA_OF_ASC_NODE":340.9498,"ARG_OF_PERICENTER":88.2314,"MEAN_ANOMALY":271.9041,"EPHEMERIS_TYPE":0,"CLASSIFICATION_TYPE":"U","NORAD_CAT_ID":49216,"ELEMENT_SET_NO":999,"REV_AT_EPOCH":21735,"BSTAR":0.00018371,"MEAN_MOTION_DOT":8.0e-7,"MEAN_MOTION_DDOT":0},{"OBJECT_NAME":"ONEWEB-0354","OBJECT_ID":"2021-083AH","EPOCH":"2026-03-05T02:51:19.946304","MEAN_MOTION":13.20772991,"ECCENTRICITY":0.0001797,"INCLINATION":87.9179,"RA_OF_ASC_NODE":295.216,"ARG_OF_PERICENTER":75.9213,"MEAN_ANOMALY":284.212,"EPHEMERIS_TYPE":0,"CLASSIFICATION_TYPE":"U","NORAD_CAT_ID":49217,"ELEMENT_SET_NO":999,"REV_AT_EPOCH":22307,"BSTAR":0.00042436,"MEAN_MOTION_DOT":1.86e-6,"MEAN_MOTION_DDOT":0},{"OBJECT_NAME":"ONEWEB-0355","OBJECT_ID":"2021-083AJ","EPOCH":"2026-03-05T03:32:43.338912","MEAN_MOTION":13.13468193,"ECCENTRICITY":0.0001933,"INCLINATION":87.9029,"RA_OF_ASC_NODE":340.9393,"ARG_OF_PERICENTER":82.4826,"MEAN_ANOMALY":277.6522,"EPHEMERIS_TYPE":0,"CLASSIFICATION_TYPE":"U","NORAD_CAT_ID":49218,"ELEMENT_SET_NO":999,"REV_AT_EPOCH":21724,"BSTAR":0.00073949,"MEAN_MOTION_DOT":2.83e-6,"MEAN_MOTION_DDOT":0},{"OBJECT_NAME":"ONEWEB-0357","OBJECT_ID":"2021-083AK","EPOCH":"2026-03-05T02:46:47.400960","MEAN_MOTION":13.20772878,"ECCENTRICITY":0.0001719,"INCLINATION":87.9177,"RA_OF_ASC_NODE":295.2112,"ARG_OF_PERICENTER":88.7091,"MEAN_ANOMALY":271.424,"EPHEMERIS_TYPE":0,"CLASSIFICATION_TYPE":"U","NORAD_CAT_ID":49219,"ELEMENT_SET_NO":999,"REV_AT_EPOCH":22307,"BSTAR":0.00018979,"MEAN_MOTION_DOT":9.0e-7,"MEAN_MOTION_DDOT":0},{"OBJECT_NAME":"ONEWEB-0332","OBJECT_ID":"2021-090A","EPOCH":"2026-03-05T02:08:52.685952","MEAN_MOTION":13.14502928,"ECCENTRICITY":0.0001604,"INCLINATION":87.8996,"RA_OF_ASC_NODE":310.4784,"ARG_OF_PERICENTER":89.2977,"MEAN_ANOMALY":270.8337,"EPHEMERIS_TYPE":0,"CLASSIFICATION_TYPE":"U","NORAD_CAT_ID":49279,"ELEMENT_SET_NO":999,"REV_AT_EPOCH":21390,"BSTAR":-0.00016846,"MEAN_MOTION_DOT":-5.0e-7,"MEAN_MOTION_DDOT":0},{"OBJECT_NAME":"ONEWEB-0347","OBJECT_ID":"2021-090B","EPOCH":"2026-03-05T02:33:08.951040","MEAN_MOTION":13.20769484,"ECCENTRICITY":0.0001413,"INCLINATION":87.9182,"RA_OF_ASC_NODE":295.2216,"ARG_OF_PERICENTER":93.32,"MEAN_ANOMALY":266.8095,"EPHEMERIS_TYPE":0,"CLASSIFICATION_TYPE":"U","NORAD_CAT_ID":49280,"ELEMENT_SET_NO":999,"REV_AT_EPOCH":21730,"BSTAR":0.00016837,"MEAN_MOTION_DOT":8.1e-7,"MEAN_MOTION_DDOT":0},{"OBJECT_NAME":"ONEWEB-0349","OBJECT_ID":"2021-090C","EPOCH":"2026-03-05T03:18:37.068192","MEAN_MOTION":13.20773177,"ECCENTRICITY":0.0001631,"INCLINATION":87.9182,"RA_OF_ASC_NODE":295.2151,"ARG_OF_PERICENTER":83.3605,"MEAN_ANOMALY":276.7714,"EPHEMERIS_TYPE":0,"CLASSIFICATION_TYPE":"U","NORAD_CAT_ID":49281,"ELEMENT_SET_NO":999,"REV_AT_EPOCH":21609,"BSTAR":0.00036189,"MEAN_MOTION_DOT":1.6e-6,"MEAN_MOTION_DDOT":0},{"OBJECT_NAME":"ONEWEB-0353","OBJECT_ID":"2021-090D","EPOCH":"2026-03-05T03:47:04.282944","MEAN_MOTION":13.14502647,"ECCENTRICITY":0.0001493,"INCLINATION":87.9,"RA_OF_ASC_NODE":310.4588,"ARG_OF_PERICENTER":89.3764,"MEAN_ANOMALY":270.7537,"EPHEMERIS_TYPE":0,"CLASSIFICATION_TYPE":"U","NORAD_CAT_ID":49282,"ELEMENT_SET_NO":999,"REV_AT_EPOCH":21391,"BSTAR":-6.8993e-5,"MEAN_MOTION_DOT":-1.3e-7,"MEAN_MOTION_DDOT":0},{"OBJECT_NAME":"ONEWEB-0356","OBJECT_ID":"2021-090E","EPOCH":"2026-03-05T03:16:19.419168","MEAN_MOTION":13.20773191,"ECCENTRICITY":8.41e-5,"INCLINATION":87.9179,"RA_OF_ASC_NODE":295.2087,"ARG_OF_PERICENTER":61.0551,"MEAN_ANOMALY":299.0666,"EPHEMERIS_TYPE":0,"CLASSIFICATION_TYPE":"U","NORAD_CAT_ID":49283,"ELEMENT_SET_NO":999,"REV_AT_EPOCH":21609,"BSTAR":0.00023104,"MEAN_MOTION_DOT":1.07e-6,"MEAN_MOTION_DDOT":0}]
